[
    {
        "Altitude(m)": 604983.0528745762,
        "Argument of Periapsis(deg)": 0.0,
        "Eccentricity": 0.0,
        "Inclination(deg)": 60.0,
        "Latitude(deg)": -0.09256888292637254,
        "Longitude(deg)": 145.0839162543795,
        "Mean Anomaly(deg)": 180.00000000000003,
        "RAAN(deg)": 65.0,
        "Satellite Name": "Test1 297",
        "Satellite Number": 297,
        "Semi-Major Axis(m)": 6980739.136638005,
        "Time(s)": 0
    },
    {
        "Altitude(m)": 605055.3317861503,
        "Argument of Periapsis(deg)": 0.00010418945913296404,
        "Eccentricity": 0.0,
        "Inclination(deg)": 60.0,
        "Latitude(deg)": -0.6329791876813585,
        "Longitude(deg)": 145.3520403063103,
        "Mean Anomaly(deg)": 180.62010614546182,
        "RAAN(deg)": 64.99957995086025,
        "Satellite Name": "Test1 297",
        "Satellite Number": 297,
        "Semi-Major Axis(m)": 6980739.136638005,
        "Time(s)": 10
    }
]